[
    {
        "Altitude(m)": 607910.9929386784,
        "Argument of Periapsis(deg)": 0.0,
        "Eccentricity": 0.0,
        "Inclination(deg)": 60.0,
        "Latitude(deg)": -14.29285345643568,
        "Longitude(deg)": 138.44263420123082,
        "Mean Anomaly(deg)": 196.36359999999996,
        "RAAN(deg)": 50.0,
        "Satellite Name": "Test1 232",
        "Satellite Number": 232,
        "Semi-Major Axis(m)": 6980739.136638005,
        "Time(s)": 0
    },
    {
        "Altitude(m)": 608060.2260340914,
        "Argument of Periapsis(deg)": 0.00010418945913296404,
        "Eccentricity": 0.0,
        "Inclination(deg)": 60.0,
        "Latitude(deg)": -14.826515130917604,
        "Longitude(deg)": 138.73124300205603,
        "Mean Anomaly(deg)": 196.9837061454618,
        "RAAN(deg)": 49.99957995086026,
        "Satellite Name": "Test1 232",
        "Satellite Number": 232,
        "Semi-Major Axis(m)": 6980739.136638005,
        "Time(s)": 10
    }
]